{
  "type": "FeatureCollection",
  "features": [
    {
      "type": "Feature",
      "properties": {
        "norad_id": 59626,
        "name": "LEGION 2",
        "group": "resource",
        "lat": -57.26783692688634,
        "lon": -130.52444427894906,
        "alt_km": 521.3634297106883,
        "timestamp": "2025-12-12T14:39:17.629639+00:00",
        "meta_object_name": "LEGION 2",
        "meta_object_id": "2024-081B",
        "meta_epoch": "2025-12-12T05:41:24.116352",
        "meta_mean_motion": 15.1648464,
        "meta_eccentricity": 0.00057693,
        "meta_inclination": 97.5213,
        "meta_ra_of_asc_node": 60.9668,
        "meta_arg_of_pericenter": 295.4982,
        "meta_mean_anomaly": 64.5654,
        "meta_ephemeris_type": 0,
        "meta_classification_type": "U",
        "meta_norad_cat_id": 59626,
        "meta_element_set_no": 999,
        "meta_rev_at_epoch": 8920,
        "meta_bstar": 0.00043714497,
        "meta_mean_motion_dot": 8.451e-05,
        "meta_mean_motion_ddot": 0,
        "tle_line1": "1 59626U 24081B   25346.23708468  .00008451  00000+0  43714-3 0  9990",
        "tle_line2": "2 59626  97.5213  60.9668 0005769 295.4982  64.5654 15.16484640 89206"
      },
      "geometry": {
        "type": "Point",
        "coordinates": [
          -130.52444427894906,
          -57.26783692688634
        ]
      }
    },
    {
      "type": "Feature",
      "properties": {
        "norad_id": 60182,
        "name": "ALOS-4 (DAICHI-4)",
        "group": "resource",
        "lat": -81.70249672306491,
        "lon": 154.17690965317314,
        "alt_km": 639.2888583521863,
        "timestamp": "2025-12-12T14:39:17.629648+00:00",
        "meta_object_name": "ALOS-4 (DAICHI-4)",
        "meta_object_id": "2024-123A",
        "meta_epoch": "2025-12-10T20:50:51.532800",
        "meta_mean_motion": 14.79478132,
        "meta_eccentricity": 0.0001419,
        "meta_inclination": 97.9225,
        "meta_ra_of_asc_node": 79.7424,
        "meta_arg_of_pericenter": 101.2045,
        "meta_mean_anomaly": 258.9326,
        "meta_ephemeris_type": 0,
        "meta_classification_type": "U",
        "meta_norad_cat_id": 60182,
        "meta_element_set_no": 999,
        "meta_rev_at_epoch": 7803,
        "meta_bstar": 0.00039567,
        "meta_mean_motion_dot": 2.905e-05,
        "meta_mean_motion_ddot": 0,
        "tle_line1": "1 60182U 24123A   25344.86865200  .00002905  00000+0  39567-3 0  9990",
        "tle_line2": "2 60182  97.9225  79.7424 0001419 101.2045 258.9326 14.79478132 78033"
      },
      "geometry": {
        "type": "Point",
        "coordinates": [
          154.17690965317314,
          -81.70249672306491
        ]
      }
    },
    {
      "type": "Feature",
      "properties": {
        "norad_id": 60452,
        "name": "LEGION 3",
        "group": "resource",
        "lat": -42.88653537558988,
        "lon": -117.51841337962874,
        "alt_km": 521.8430727047144,
        "timestamp": "2025-12-12T14:39:17.629658+00:00",
        "meta_object_name": "LEGION 3",
        "meta_object_id": "2024-146A",
        "meta_epoch": "2025-12-12T05:29:30.788448",
        "meta_mean_motion": 15.15753033,
        "meta_eccentricity": 0.00148181,
        "meta_inclination": 45.0017,
        "meta_ra_of_asc_node": 312.8722,
        "meta_arg_of_pericenter": 195.944,
        "meta_mean_anomaly": 164.0974,
        "meta_ephemeris_type": 0,
        "meta_classification_type": "U",
        "meta_norad_cat_id": 60452,
        "meta_element_set_no": 999,
        "meta_rev_at_epoch": 7365,
        "meta_bstar": 0.00042703628,
        "meta_mean_motion_dot": 8.048e-05,
        "meta_mean_motion_ddot": 0,
        "tle_line1": "1 60452U 24146A   25346.22882857  .00008048  00000+0  42704-3 0  9995",
        "tle_line2": "2 60452  45.0017 312.8722 0014818 195.9440 164.0974 15.15753033 73650"
      },
      "geometry": {
        "type": "Point",
        "coordinates": [
          -117.51841337962874,
          -42.88653537558988
        ]
      }
    },
    {
      "type": "Feature",
      "properties": {
        "norad_id": 60453,
        "name": "LEGION 4",
        "group": "resource",
        "lat": -43.729784261920756,
        "lon": -30.363478123622702,
        "alt_km": 516.3522265977108,
        "timestamp": "2025-12-12T14:39:17.629668+00:00",
        "meta_object_name": "LEGION 4",
        "meta_object_id": "2024-146B",
        "meta_epoch": "2025-12-12T05:30:22.582656",
        "meta_mean_motion": 15.15816144,
        "meta_eccentricity": 0.00095191,
        "meta_inclination": 45.0388,
        "meta_ra_of_asc_node": 44.6172,
        "meta_arg_of_pericenter": 308.4043,
        "meta_mean_anomaly": 51.5981,
        "meta_ephemeris_type": 0,
        "meta_classification_type": "U",
        "meta_norad_cat_id": 60453,
        "meta_element_set_no": 999,
        "meta_rev_at_epoch": 7250,
        "meta_bstar": 0.00042590992,
        "meta_mean_motion_dot": 8.028e-05,
        "meta_mean_motion_ddot": 0,
        "tle_line1": "1 60453U 24146B   25346.22942804  .00008028  00000+0  42591-3 0  9997",
        "tle_line2": "2 60453  45.0388  44.6172 0009519 308.4043  51.5981 15.15816144 72507"
      },
      "geometry": {
        "type": "Point",
        "coordinates": [
          -30.363478123622702,
          -43.729784261920756
        ]
      }
    },
    {
      "type": "Feature",
      "properties": {
        "norad_id": 60989,
        "name": "SENTINEL-2C",
        "group": "resource",
        "lat": 57.72798608521823,
        "lon": 45.28237460505452,
        "alt_km": 782.7315513463682,
        "timestamp": "2025-12-12T14:39:17.629677+00:00",
        "meta_object_name": "SENTINEL-2C",
        "meta_object_id": "2024-157A",
        "meta_epoch": "2025-12-12T04:18:40.681728",
        "meta_mean_motion": 14.30817207,
        "meta_eccentricity": 0.00011987,
        "meta_inclination": 98.5683,
        "meta_ra_of_asc_node": 58.6703,
        "meta_arg_of_pericenter": 97.3608,
        "meta_mean_anomaly": 262.7711,
        "meta_ephemeris_type": 0,
        "meta_classification_type": "U",
        "meta_norad_cat_id": 60989,
        "meta_element_set_no": 999,
        "meta_rev_at_epoch": 6624,
        "meta_bstar": 0.00010420409,
        "meta_mean_motion_dot": 2.3e-06,
        "meta_mean_motion_ddot": 0,
        "tle_line1": "1 60989U 24157A   25346.17963752  .00000230  00000+0  10420-3 0  9995",
        "tle_line2": "2 60989  98.5683  58.6703 0001198  97.3608 262.7711 14.30817207 66241"
      },
      "geometry": {
        "type": "Point",
        "coordinates": [
          45.28237460505452,
          57.72798608521823
        ]
      }
    },
    {
      "type": "Feature",
      "properties": {
        "norad_id": 61735,
        "name": "IONOSFERA-M 1",
        "group": "resource",
        "lat": -30.747057778184054,
        "lon": -138.28952219390808,
        "alt_km": 821.7046970976535,
        "timestamp": "2025-12-12T14:39:17.629686+00:00",
        "meta_object_name": "IONOSFERA-M 1",
        "meta_object_id": "2024-199A",
        "meta_epoch": "2025-12-12T08:02:58.179840",
        "meta_mean_motion": 14.22713912,
        "meta_eccentricity": 9.892e-05,
        "meta_inclination": 98.7404,
        "meta_ra_of_asc_node": 216.1867,
        "meta_arg_of_pericenter": 22.7439,
        "meta_mean_anomaly": 337.3782,
        "meta_ephemeris_type": 0,
        "meta_classification_type": "U",
        "meta_norad_cat_id": 61735,
        "meta_element_set_no": 999,
        "meta_rev_at_epoch": 10113,
        "meta_bstar": 6.7180058e-05,
        "meta_mean_motion_dot": 1.06e-06,
        "meta_mean_motion_ddot": 0,
        "tle_line1": "1 61735U 24199A   25346.33539560  .00000106  00000+0  67180-4 0  9993",
        "tle_line2": "2 61735  98.7404 216.1867 0000989  22.7439 337.3782 14.22713912101131"
      },
      "geometry": {
        "type": "Point",
        "coordinates": [
          -138.28952219390808,
          -30.747057778184054
        ]
      }
    },
    {
      "type": "Feature",
      "properties": {
        "norad_id": 61736,
        "name": "IONOSFERA-M 2",
        "group": "resource",
        "lat": 27.902667591398718,
        "lon": 41.04478759699138,
        "alt_km": 814.0461792767273,
        "timestamp": "2025-12-12T14:39:17.629695+00:00",
        "meta_object_name": "IONOSFERA-M 2",
        "meta_object_id": "2024-199B",
        "meta_epoch": "2025-12-12T07:11:35.337984",
        "meta_mean_motion": 14.22716075,
        "meta_eccentricity": 0.00016304,
        "meta_inclination": 98.7402,
        "meta_ra_of_asc_node": 216.0638,
        "meta_arg_of_pericenter": 111.3347,
        "meta_mean_anomaly": 248.8005,
        "meta_ephemeris_type": 0,
        "meta_classification_type": "U",
        "meta_norad_cat_id": 61736,
        "meta_element_set_no": 999,
        "meta_rev_at_epoch": 10425,
        "meta_bstar": 7.0455129e-05,
        "meta_mean_motion_dot": 1.14e-06,
        "meta_mean_motion_ddot": 0,
        "tle_line1": "1 61736U 24199B   25346.29971456  .00000114  00000+0  70455-4 0  9991",
        "tle_line2": "2 61736  98.7402 216.0638 0001630 111.3347 248.8005 14.22716075104255"
      },
      "geometry": {
        "type": "Point",
        "coordinates": [
          41.04478759699138,
          27.902667591398718
        ]
      }
    }
  ]
}